GLOBALSTAR M001         
1 25162U 98008A   24149.95878965 -.00000103  00000+0 -48835-4 0  9995
2 25162  52.0057  11.5284 0001928 133.4547 335.7470 12.38184612196118
GLOBALSTAR M004         
1 25163U 98008B   24150.38923962 -.00000086  00000+0  10077-3 0  9998
2 25163  51.9970 144.9966 0002863 156.0774 351.5748 12.63360857213277
GLOBALSTAR M002         
1 25164U 98008C   24150.34813425 -.00000082  00000+0 -11459-3 0  9999
2 25164  51.9988 122.6087 0000989 159.9837 200.1022 11.61503093139531
GLOBALSTAR M003         
1 25165U 98008D   24150.24206683  .00000036  00000+0  13405-2 0  9990
2 25165  51.9840 151.9023 0007970 240.8511 202.3462 12.12005981186758
GLOBALSTAR M014         
1 25306U 98023A   24150.18222125 -.00000059  00000+0  35172-3 0  9998
2 25306  51.9861  54.3218 0001436  29.2208 139.3825 11.65468114146388
GLOBALSTAR M006         
1 25307U 98023B   24150.16539970 -.00000042  00000+0  69882-3 0  9993
2 25307  51.9935  92.4844 0003556 127.7202 336.6963 11.58164291172444
GLOBALSTAR M015         
1 25308U 98023C   24150.36344236 -.00000074  00000+0 -11635-4 0  9995
2 25308  51.9781 172.8729 0012448 114.8455 345.0738 11.48852680150339
GLOBALSTAR M008         
1 25309U 98023D   24150.54279966 -.00000096  00000+0  89266-6 0  9993
2 25309  51.9962 230.3134 0002762  96.1995   7.1210 12.36043700190710
